APRIZESAT 2             
1 28366U 04025A   22229.21807702  .00000070  00000+0  35381-4 0  9990
2 28366  98.1577  95.2303 0108045 151.8120 208.8974 14.36834462950544
SAUDICOMSAT 1           
1 28369U 04025D   22229.38629255  .00000281  00000+0  79452-4 0  9997
2 28369  98.4450 191.4168 0033271 350.5928   9.4640 14.52831101960754
SAUDICOMSAT 2           
1 28370U 04025E   22229.15429714  .00000185  00000+0  61788-4 0  9998
2 28370  98.5368 190.3436 0057646 176.6060 183.5534 14.47724951957432
APRIZESAT 1             
1 28372U 04025G   22229.40415630  .00000176  00000+0  57005-4 0  9997
2 28372  98.4978 190.7753 0047488  90.0149 270.6487 14.49825822958983
NANOSAT-1               
1 28493U 04049B   22229.19528572  .00000529  00000+0  88112-4 0  9998
2 28493  98.1152 330.0367 0005846  97.9966 262.1905 14.74062629948822
SAUDICOMSAT 7           
1 31119U 07012C   22228.64431157  .00000293  00000+0  66697-4 0  9993
2 31119  98.1867 173.9466 0058343 262.5125  96.9445 14.62137415817555
SAUDICOMSAT 6           
1 31121U 07012E   22229.41177050  .00000417  00000+0  95752-4 0  9993
2 31121  98.2275 169.9924 0076379   4.1324 356.0490 14.58919277815902
SAUDICOMSAT 5           
1 31124U 07012H   22228.64028258  .00000290  00000+0  63961-4 0  9991
2 31124  98.1558 175.4813 0050607 207.2122 152.6427 14.63862845818395
SAUDICOMSAT 3           
1 31125U 07012J   22228.82907524  .00000398  00000+0  81249-4 0  9992
2 31125  98.1215 177.0994 0043543 152.1906 208.1639 14.65689057819356
SAUDICOMSAT 4           
1 31127U 07012L   22229.39512639  .00000369  00000+0  83659-4 0  9991
2 31127  98.2096 173.0759 0066648 309.8032  49.7313 14.60649636816835
APRIZESAT 4             
1 35684U 09041D   22229.23087463  .00000399  00000+0  59852-4 0  9993
2 35684  98.3106 244.9589 0047357 155.3228 205.0263 14.79699598704105
APRIZESAT 3             
1 35686U 09041F   22229.22355798  .00000548  00000+0  63669-4 0  9990
2 35686  98.1062 317.2517 0071694 348.8758  11.0869 14.88008559707694
AISSAT 1                
1 36797U 10035C   22228.73834830  .00000934  00000+0  11029-3 0  9994
2 36797  98.2401  54.9010 0010472 341.4032  18.6799 14.87212524655404
S-NET D                 
1 43186U 18014G   22229.28086471  .00001984  00000+0  17239-3 0  9995
2 43186  97.6518 133.8484 0012544  94.5139 265.7517 14.98079462248027
S-NET B                 
1 43187U 18014H   22229.28107663  .00001999  00000+0  17367-3 0  9991
2 43187  97.6514 133.7972 0012561  94.4737 265.7920 14.98077598248023
S-NET A                 
1 43188U 18014J   22228.68023052  .00001888  00000+0  16427-3 0  9997
2 43188  97.6518 133.2751 0012505  96.3107 263.9540 14.98074658247939
S-NET C                 
1 43189U 18014K   22229.21539213  .00002037  00000+0  17682-3 0  9990
2 43189  97.6514 133.7208 0012596  94.5075 265.7587 14.98074678246563
SALSAT                  
1 46495U 20068K   22228.81456008  .00001315  00000+0  97552-4 0  9993
2 46495  97.7310 170.1494 0018201  74.6001 285.7234 15.04716941103264
